{"type": "FeatureCollection", "features": [ {"type": "Feature", "properties": {"norad_id": 34303, "name": "COSMOS 2251 DEB", "group": "cosmos-2251-debris", "lat": 0.15759128762532215, "lon": 115.28054872887566, "alt_km": 737.6687726528171, "timestamp": "2025-12-08T21:31:05.060404+00:00", "meta": {"OBJECT_NAME": "COSMOS 2251 DEB", "OBJECT_ID": "1993-036MZ", "EPOCH": "2025-12-08T08:12:11.894976", "MEAN_MOTION": 14.54359236, "ECCENTRICITY": 0.01349587, "INCLINATION": 74.0062, "RA_OF_ASC_NODE": 296.3767, "ARG_OF_PERICENTER": 75.8543, "MEAN_ANOMALY": 78.8769, "EPHEMERIS_TYPE": 0, "CLASSIFICATION_TYPE": "U", "NORAD_CAT_ID": 34303, "ELEMENT_SET_NO": 999, "REV_AT_EPOCH": 87898, "BSTAR": 0.0017009791, "MEAN_MOTION_DOT": 8.14e-05, "MEAN_MOTION_DDOT": 0}, "tle": {"line1": "1 34303U 93036MZ  25342.34180434  .00008140  00000+0  17010-2 0  9990", "line2": "2 34303  74.0062 296.3767 0134958  75.8543  78.8769 14.54359236878983"}}, "geometry": {"type": "Point", "coordinates": [115.28054872887566, 0.15759128762532215]}}, {"type": "Feature", "properties": {"norad_id": 34304, "name": "COSMOS 2251 DEB", "group": "cosmos-2251-debris", "lat": 21.51832290408256, "lon": -56.80629326996793, "alt_km": 796.8793139328254, "timestamp": "2025-12-08T21:31:05.060414+00:00", "meta": {"OBJECT_NAME": "COSMOS 2251 DEB", "OBJECT_ID": "1993-036NA", "EPOCH": "2025-12-08T12:46:27.177600", "MEAN_MOTION": 14.37796566, "ECCENTRICITY": 0.01289719, "INCLINATION": 74.0133, "RA_OF_ASC_NODE": 130.3555, "ARG_OF_PERICENTER": 269.0083, "MEAN_ANOMALY": 164.8168, "EPHEMERIS_TYPE": 0, "CLASSIFICATION_TYPE": "U", "NORAD_CAT_ID": 34304, "ELEMENT_SET_NO": 999, "REV_AT_EPOCH": 87236, "BSTAR": 0.0021152055, "MEAN_MOTION_DOT": 6.993e-05, "MEAN_MOTION_DDOT": 0}, "tle": {"line1": "1 34304U 93036NA  25342.53225900  .00006993  00000+0  21152-2 0  9996", "line2": "2 34304  74.0133 130.3555 0128971 269.0083 164.8168 14.37796566872366"}}, "geometry": {"type": "Point", "coordinates": [-56.80629326996793, 21.51832290408256]}}, {"type": "Feature", "properties": {"norad_id": 34307, "name": "COSMOS 2251 DEB", "group": "cosmos-2251-debris", "lat": 67.52998441435076, "lon": 3.014229692155543, "alt_km": 973.499112291026, "timestamp": "2025-12-08T21:31:05.060424+00:00", "meta": {"OBJECT_NAME": "COSMOS 2251 DEB", "OBJECT_ID": "1993-036ND", "EPOCH": "2025-12-08T09:28:06.570336", "MEAN_MOTION": 13.54312496, "ECCENTRICITY": 0.03922034, "INCLINATION": 74.0531, "RA_OF_ASC_NODE": 320.088, "ARG_OF_PERICENTER": 151.9843, "MEAN_ANOMALY": 359.4417, "EPHEMERIS_TYPE": 0, "CLASSIFICATION_TYPE": "U", "NORAD_CAT_ID": 34307, "ELEMENT_SET_NO": 999, "REV_AT_EPOCH": 82803, "BSTAR": 0.00097370567, "MEAN_MOTION_DOT": 1.064e-05, "MEAN_MOTION_DDOT": 0}, "tle": {"line1": "1 34307U 93036ND  25342.39452049  .00001064  00000+0  97371-3 0  9990", "line2": "2 34307  74.0531 320.0880 0392203 151.9843 359.4417 13.54312496828032"}}, "geometry": {"type": "Point", "coordinates": [3.014229692155543, 67.52998441435076]}}, {"type": "Feature", "properties": {"norad_id": 34313, "name": "COSMOS 2251 DEB", "group": "cosmos-2251-debris", "lat": 60.445871053960005, "lon": 103.10099440499683, "alt_km": 498.58724679557326, "timestamp": "2025-12-08T21:31:05.060445+00:00", "meta": {"OBJECT_NAME": "COSMOS 2251 DEB", "OBJECT_ID": "1993-036NK", "EPOCH": "2025-12-08T08:21:37.504800", "MEAN_MOTION": 15.17997396, "ECCENTRICITY": 0.00113472, "INCLINATION": 73.9726, "RA_OF_ASC_NODE": 314.7129, "ARG_OF_PERICENTER": 86.6621, "MEAN_ANOMALY": 273.5873, "EPHEMERIS_TYPE": 0, "CLASSIFICATION_TYPE": "U", "NORAD_CAT_ID": 34313, "ELEMENT_SET_NO": 999, "REV_AT_EPOCH": 88998, "BSTAR": 0.0045092243, "MEAN_MOTION_DOT": 0.00093005, "MEAN_MOTION_DDOT": 0}, "tle": {"line1": "1 34313U 93036NK  25342.34835075  .00093005  00000+0  45092-2 0  9994", "line2": "2 34313  73.9726 314.7129 0011347  86.6621 273.5873 15.17997396889986"}}, "geometry": {"type": "Point", "coordinates": [103.10099440499683, 60.445871053960005]}}, {"type": "Feature", "properties": {"norad_id": 34314, "name": "COSMOS 2251 DEB", "group": "cosmos-2251-debris", "lat": 73.04438438304335, "lon": 65.07657579801939, "alt_km": 764.9502207312162, "timestamp": "2025-12-08T21:31:05.060456+00:00", "meta": {"OBJECT_NAME": "COSMOS 2251 DEB", "OBJECT_ID": "1993-036NL", "EPOCH": "2025-12-08T04:13:04.112256", "MEAN_MOTION": 14.17406668, "ECCENTRICITY": 0.01026956, "INCLINATION": 74.0069, "RA_OF_ASC_NODE": 316.5279, "ARG_OF_PERICENTER": 63.3588, "MEAN_ANOMALY": 314.8808, "EPHEMERIS_TYPE": 0, "CLASSIFICATION_TYPE": "U", "NORAD_CAT_ID": 34314, "ELEMENT_SET_NO": 999, "REV_AT_EPOCH": 86593, "BSTAR": 0.00091929874, "MEAN_MOTION_DOT": 1.936e-05, "MEAN_MOTION_DDOT": 0}, "tle": {"line1": "1 34314U 93036NL  25342.17574204  .00001936  00000+0  91930-3 0  9995", "line2": "2 34314  74.0069 316.5279 0102695  63.3588 314.8808 14.17406668865938"}}, "geometry": {"type": "Point", "coordinates": [65.07657579801939, 73.04438438304335]}}, {"type": "Feature", "properties": {"norad_id": 34316, "name": "COSMOS 2251 DEB", "group": "cosmos-2251-debris", "lat": -20.110482935257448, "lon": -21.41786329820426, "alt_km": 597.8192270252903, "timestamp": "2025-12-08T21:31:05.060466+00:00", "meta": {"OBJECT_NAME": "COSMOS 2251 DEB", "OBJECT_ID": "1993-036NN", "EPOCH": "2025-12-08T10:20:39.026400", "MEAN_MOTION": 14.91626759, "ECCENTRICITY": 0.00080718, "INCLINATION": 74.0659, "RA_OF_ASC_NODE": 345.5186, "ARG_OF_PERICENTER": 71.6638, "MEAN_ANOMALY": 288.5422, "EPHEMERIS_TYPE": 0, "CLASSIFICATION_TYPE": "U", "NORAD_CAT_ID": 34316, "ELEMENT_SET_NO": 999, "REV_AT_EPOCH": 89145, "BSTAR": 0.0020361205, "MEAN_MOTION_DOT": 0.00020489, "MEAN_MOTION_DDOT": 0}, "tle": {"line1": "1 34316U 93036NN  25342.43100725  .00020489  00000+0  20361-2 0  9992", "line2": "2 34316  74.0659 345.5186 0008071  71.6638 288.5422 14.91626759891457"}}, "geometry": {"type": "Point", "coordinates": [-21.41786329820426, -20.110482935257448]}}, {"type": "Feature", "properties": {"norad_id": 34317, "name": "COSMOS 2251 DEB", "group": "cosmos-2251-debris", "lat": 33.68025299996462, "lon": 53.16341030015862, "alt_km": 766.1713498697372, "timestamp": "2025-12-08T21:31:05.060476+00:00", "meta": {"OBJECT_NAME": "COSMOS 2251 DEB", "OBJECT_ID": "1993-036NP", "EPOCH": "2025-12-08T14:54:33.681024", "MEAN_MOTION": 13.65116838, "ECCENTRICITY": 0.033639, "INCLINATION": 73.9248, "RA_OF_ASC_NODE": 42.5379, "ARG_OF_PERICENTER": 32.5997, "MEAN_ANOMALY": 89.78, "EPHEMERIS_TYPE": 0, "CLASSIFICATION_TYPE": "U", "NORAD_CAT_ID": 34317, "ELEMENT_SET_NO": 999, "REV_AT_EPOCH": 83563, "BSTAR": 0.00062790224, "MEAN_MOTION_DOT": 7.27e-06, "MEAN_MOTION_DDOT": 0}, "tle": {"line1": "1 34317U 93036NP  25342.62122316  .00000727  00000+0  62790-3 0  9990", "line2": "2 34317  73.9248  42.5379 0336390  32.5997  89.7800 13.65116838835631"}}, "geometry": {"type": "Point", "coordinates": [53.16341030015862, 33.68025299996462]}}, {"type": "Feature", "properties": {"norad_id": 34321, "name": "COSMOS 2251 DEB", "group": "cosmos-2251-debris", "lat": -14.666169050519105, "lon": 159.28348026010732, "alt_km": 722.9097228011215, "timestamp": "2025-12-08T21:31:05.060487+00:00", "meta": {"OBJECT_NAME": "COSMOS 2251 DEB", "OBJECT_ID": "1993-036NT", "EPOCH": "2025-12-08T15:16:48.586080", "MEAN_MOTION": 14.50029497, "ECCENTRICITY": 0.00157349, "INCLINATION": 74.028, "RA_OF_ASC_NODE": 164.0703, "ARG_OF_PERICENTER": 293.8299, "MEAN_ANOMALY": 134.6526, "EPHEMERIS_TYPE": 0, "CLASSIFICATION_TYPE": "U", "NORAD_CAT_ID": 34321, "ELEMENT_SET_NO": 999, "REV_AT_EPOCH": 88427, "BSTAR": 0.00096784768, "MEAN_MOTION_DOT": 3.731e-05, "MEAN_MOTION_DDOT": 0}, "tle": {"line1": "1 34321U 93036NT  25342.63667345  .00003731  00000+0  96785-3 0  9991", "line2": "2 34321  74.0280 164.0703 0015734 293.8299 134.6526 14.50029497884276"}}, "geometry": {"type": "Point", "coordinates": [159.28348026010732, -14.666169050519105]}}, {"type": "Feature", "properties": {"norad_id": 34323, "name": "COSMOS 2251 DEB", "group": "cosmos-2251-debris", "lat": 22.998259861899705, "lon": 137.67211807287575, "alt_km": 683.8720585880856, "timestamp": "2025-12-08T21:31:05.060497+00:00", "meta": {"OBJECT_NAME": "COSMOS 2251 DEB", "OBJECT_ID": "1993-036NV", "EPOCH": "2025-12-08T11:56:26.794176", "MEAN_MOTION": 14.7419671, "ECCENTRICITY": 0.00599875, "INCLINATION": 73.9535, "RA_OF_ASC_NODE": 131.4378, "ARG_OF_PERICENTER": 176.4657, "MEAN_ANOMALY": 250.9953, "EPHEMERIS_TYPE": 0, "CLASSIFICATION_TYPE": "U", "NORAD_CAT_ID": 34323, "ELEMENT_SET_NO": 999, "REV_AT_EPOCH": 88377, "BSTAR": 0.0035552506, "MEAN_MOTION_DOT": 0.00024217, "MEAN_MOTION_DDOT": 0}, "tle": {"line1": "1 34323U 93036NV  25342.49753234  .00024217  00000+0  35553-2 0  9997", "line2": "2 34323  73.9535 131.4378 0059987 176.4657 250.9953 14.74196710883776"}}, "geometry": {"type": "Point", "coordinates": [137.67211807287575, 22.998259861899705]}}, {"type": "Feature", "properties": {"norad_id": 34325, "name": "COSMOS 2251 DEB", "group": "cosmos-2251-debris", "lat": 53.775437897831544, "lon": -3.6877626456251407, "alt_km": 882.2083813247928, "timestamp": "2025-12-08T21:31:05.060507+00:00", "meta": {"OBJECT_NAME": "COSMOS 2251 DEB", "OBJECT_ID": "1993-036NX", "EPOCH": "2025-12-08T14:13:36.165216", "MEAN_MOTION": 14.04435622, "ECCENTRICITY": 0.01926472, "INCLINATION": 73.8712, "RA_OF_ASC_NODE": 200.1137, "ARG_OF_PERICENTER": 218.2843, "MEAN_ANOMALY": 171.2967, "EPHEMERIS_TYPE": 0, "CLASSIFICATION_TYPE": "U", "NORAD_CAT_ID": 34325, "ELEMENT_SET_NO": 999, "REV_AT_EPOCH": 85457, "BSTAR": 0.0025936985, "MEAN_MOTION_DOT": 4.854e-05, "MEAN_MOTION_DDOT": 0}, "tle": {"line1": "1 34325U 93036NX  25342.59277969  .00004854  00000+0  25937-2 0  9996", "line2": "2 34325  73.8712 200.1137 0192647 218.2843 171.2967 14.04435622854571"}}, "geometry": {"type": "Point", "coordinates": [-3.6877626456251407, 53.775437897831544]}}]}